[{"OBJECT_NAME":"OBJECT C","OBJECT_ID":"2024-110C","EPOCH":"2026-03-09T23:43:55.665408","MEAN_MOTION":14.9795015,"ECCENTRICITY":0.00127752,"INCLINATION":97.5516,"RA_OF_ASC_NODE":147.5124,"ARG_OF_PERICENTER":117.9593,"MEAN_ANOMALY":242.2925,"EPHEMERIS_TYPE":0,"CLASSIFICATION_TYPE":"U","NORAD_CAT_ID":60014,"ELEMENT_SET_NO":999,"REV_AT_EPOCH":8695,"BSTAR":0.00013340044,"MEAN_MOTION_DOT":1.519e-5,"MEAN_MOTION_DDOT":0},{"OBJECT_NAME":"STARLINK-36159","OBJECT_ID":"2025-298E","EPOCH":"2026-03-09T22:03:03.380832","MEAN_MOTION":14.99153219,"ECCENTRICITY":0.00023256,"INCLINATION":70.0019,"RA_OF_ASC_NODE":13.8101,"ARG_OF_PERICENTER":251.4113,"MEAN_ANOMALY":108.6794,"EPHEMERIS_TYPE":0,"CLASSIFICATION_TYPE":"U","NORAD_CAT_ID":67079,"ELEMENT_SET_NO":999,"REV_AT_EPOCH":1325,"BSTAR":0.0001811037,"MEAN_MOTION_DOT":2.114e-5,"MEAN_MOTION_DDOT":0}]
